NOAA 1 [-]              
1 04793U 70106A   19096.27029260 -.00000038  00000-0  38373-4 0  9990
2 04793 101.7098 165.7626 0032019  68.8519 333.9067 12.53988872211644
NOAA 2 (ITOS-D) [-]     
1 06235U 72082A   19096.58480361 -.00000033  00000-0  77707-4 0  9994
2 06235 101.7875  63.6040 0004107 150.5437 340.6295 12.53112349125911
NOAA 3 [-]              
1 06920U 73086A   19096.57444029 -.00000055  00000-0 -76190-4 0  9990
2 06920 102.0434  66.4331 0006197 292.2214 180.2141 12.40345090 56186
NOAA 4 [-]              
1 07529U 74089A   19096.57230201 -.00000045  00000-0 -25360-6 0  9999
2 07529 101.7451  65.0355 0008683 184.8945 286.8057 12.53126462 30508
NOAA 5 [-]              
1 09057U 76077A   19096.56897352 -.00000055  00000-0 -88053-4 0  9998
2 09057 101.9244  69.5213 0010024 140.4026 327.9069 12.37755142929467
TIROS N [P]             
1 11060U 78096A   19096.79296569  .00000005  00000-0  23762-4 0  9995
2 11060  98.7990 154.7917 0009579 254.8092 105.2024 14.18228505306331
NOAA 6 [P]              
1 11416U 79057A   19096.61261982  .00000007  00000-0  18437-4 0  9995
2 11416  98.6353  90.8758 0011491 102.4011 257.8460 14.33523592 74405
NOAA 7 [-]              
1 12553U 81059A   19096.58400338 -.00000026  00000-0  10421-4 0  9996
2 12553  99.0982 102.2259 0011347 185.0844 285.4129 14.17256224952597
NOAA 8 [-]              
1 13923U 83022A   19096.56416025 -.00000009  00000-0  13657-4 0  9993
2 13923  98.5776  83.0846 0015903  33.8964 326.3231 14.28669331875904
NOAA 9 [P]              
1 15427U 84123A   19096.46284344 -.00000008  00000-0  18790-4 0  9995
2 15427  98.8851  45.5550 0013865 242.1165 225.9430 14.16063778771539
NOAA 10 [-]             
1 16969U 86073A   19096.59408025 -.00000010  00000-0  13209-4 0  9994
2 16969  98.4779  95.2468 0012947 136.6354 331.5547 14.28067261694400
NOAA 11 [-]             
1 19531U 88089A   19096.62194019 -.00000020  00000-0  10847-4 0  9996
2 19531  98.4572 134.6857 0010194 308.7779  51.2485 14.15238906575883
NOAA 12 [-]             
1 21263U 91032A   19096.58793577 -.00000017  00000-0  10756-4 0  9997
2 21263  98.5216 113.9840 0014228 152.6191 207.5742 14.25889261450557
NOAA 13 [-]             
1 22739U 93050A   19096.57892584  .00000010  00000-0  27239-4 0  9991
2 22739  98.4791 123.2503 0010773  90.9756 269.2651 14.12726732322398
NOAA 14 [-]             
1 23455U 94089A   19096.55634370 -.00000020  00000-0  11801-4 0  9995
2 23455  98.6045 160.5401 0010559  76.7244 283.5106 14.14128223251887
NOAA 15 [B]             
1 25338U 98030A   19096.57943809  .00000016  00000-0  25388-4 0  9998
2 25338  98.7533 117.9541 0011609  95.7483 264.5021 14.25900837 86833
NOAA 16 [-]             
1 26536U 00055A   19096.51839825 -.00000009  00000-0  18442-4 0  9991
2 26536  98.7806 169.8448 0009528 250.0434 109.9712 14.13225633955888
NOAA 17 [-]             
1 27453U 02032A   19096.52733112  .00000007  00000-0  21273-4 0  9993
2 27453  98.5297  48.9777 0012854  76.2638 283.9972 14.25036141872539
NOAA 18 [B]             
1 28654U 05018A   19096.60064879  .00000060  00000-0  57308-4 0  9997
2 28654  99.1055 142.4416 0014536  27.4977 332.6960 14.12413918715201
NOAA 19 [+]             
1 33591U 09005A   19096.57913686  .00000019  00000-0  35673-4 0  9993
2 33591  99.1768  85.9477 0013287 220.5545 139.4637 14.12342799523585
SUOMI NPP [+]           
1 37849U 11061A   19096.62019073 -.00000004  00000-0  19007-4 0  9999
2 37849  98.7308  35.8189 0001658  82.5198 326.7216 14.19561494385518
NOAA 20 [+]             
1 43013U 17073A   19096.57588971  .00000007  00000-0  23815-4 0  9994
2 43013  98.7154  35.8659 0001414  99.4143 260.7193 14.19551770 71537
